*******************************************************************************
JPL/HORIZONS              4578 Kurashiki (1988 XL1)        2023-Sep-05 05:19:01
Rec #:    4578 (+COV) Soln.date: 2023-Aug-23_19:43:40   # obs: 2022 (1979-2023)
 
IAU76/J2000 helio. ecliptic osc. elements (au, days, deg., period=Julian yrs):
 
  EPOCH=  2457453.5 ! 2016-Mar-06.00 (TDB)         Residual RMS= .27549
   EC= .2427471355510051   QR= 2.056931002856165   TP= 2457501.1863873489
   OM= 129.6976098145914   W=  5.294562783737683   IN= 5.259157828504502
   A= 2.71630666508322     MA= 349.5014264009667   ADIST= 3.375682327310276
   PER= 4.47689            N= .220158712           ANGMOM= .027503166
   DAN= 2.05865            DDN= 3.37107            L= 134.9700099
   B= .4846192             MOID= 1.07116997        TP= 2016-Apr-22.6863873489
 
Asteroid physical parameters (km, seconds, rotational period in hours):
   GM= n.a.                RAD= 6.225              ROTPER= n.a.
   H= 14.11                G= .150                 B-V= n.a.
                           ALBEDO= .035            STYP= n.a.

ASTEROID comments: 
1: soln ref.= JPL#37, OCC=0
2: source=ORB
*******************************************************************************


*******************************************************************************
Ephemeris / API_USER Tue Sep  5 05:19:01 2023 Pasadena, USA      / Horizons
*******************************************************************************
Target body name: 4578 Kurashiki (1988 XL1)       {source: JPL#37}
Center body name: Solar System Barycenter (0)     {source: DE441}
Center-site name: BODY CENTER
*******************************************************************************
Start time      : A.D. 2023-Aug-12 00:00:00.0000 TDB
Stop  time      : A.D. 2023-Aug-13 00:00:00.0000 TDB
Step-size       : 2880 minutes
*******************************************************************************
Center geodetic : 0.0, 0.0, 0.0                   {E-lon(deg),Lat(deg),Alt(km)}
Center cylindric: 0.0, 0.0, 0.0                   {E-lon(deg),Dxy(km),Dz(km)}
Center radii    : (undefined)
Small perturbers: Yes                             {source: SB441-N16}
Output units    : KM-S
Calendar mode   : Mixed Julian/Gregorian
Output type     : GEOMETRIC cartesian states
Output format   : 2 (position and velocity)
Reference frame : Ecliptic of J2000.0
*******************************************************************************
Initial IAU76/J2000 heliocentric ecliptic osculating elements (au, days, deg.):
  EPOCH=  2457453.5 ! 2016-Mar-06.00 (TDB)         Residual RMS= .27549        
   EC= .2427471355510051   QR= 2.056931002856165   TP= 2457501.1863873489      
   OM= 129.6976098145914   W=  5.294562783737683   IN= 5.259157828504502       
  Equivalent ICRF heliocentric cartesian coordinates (au, au/d):
   X=-9.549234583862556E-01  Y= 1.707038727193627E+00  Z= 6.957079789056357E-01
  VX=-1.136187143429658E-02 VY=-6.673615983584954E-03 VZ=-1.583557466314080E-03
Asteroid physical parameters (km, seconds, rotational period in hours):        
   GM= n.a.                RAD= 6.225              ROTPER= n.a.                
   H= 14.11                G= .150                 B-V= n.a.                   
                           ALBEDO= .035            STYP= n.a.                  
*******************************************************************************
JDTDB
   X     Y     Z
   VX    VY    VZ
*******************************************************************************
$$SOE
2460168.500000000 = A.D. 2023-Aug-12 00:00:00.0000 TDB 
 X = 4.651428106840573E+08 Y =-1.220783497852067E+08 Z =-2.585970799707025E+07
 VX= 1.421188866885979E+00 VY= 1.482877673663059E+01 VZ=-9.718155159153818E-01
$$EOE
*******************************************************************************
 
TIME

  Barycentric Dynamical Time ("TDB" or T_eph) output was requested. This
continuous coordinate time is equivalent to the relativistic proper time
of a clock at rest in a reference frame co-moving with the solar system
barycenter but outside the system's gravity well. It is the independent
variable in the solar system relativistic equations of motion.

  TDB runs at a uniform rate of one SI second per second and is independent
of irregularities in Earth's rotation.
 
CALENDAR SYSTEM

  Mixed calendar mode was active such that calendar dates after AD 1582-Oct-15
(if any) are in the modern Gregorian system. Dates prior to 1582-Oct-5 (if any)
are in the Julian calendar system, which is automatically extended for dates
prior to its adoption on 45-Jan-1 BC.  The Julian calendar is useful for
matching historical dates. The Gregorian calendar more accurately corresponds
to the Earth's orbital motion and seasons. A "Gregorian-only" calendar mode is
available if such physical events are the primary interest.

REFERENCE FRAME AND COORDINATES

  Ecliptic at the standard reference epoch

    Reference epoch: J2000.0
    X-Y plane: adopted Earth orbital plane at the reference epoch
               Note: IAU76 obliquity of 84381.448 arcseconds wrt ICRF X-Y plane
    X-axis   : ICRF
    Z-axis   : perpendicular to the X-Y plane in the directional (+ or -) sense
               of Earth's north pole at the reference epoch.

  Symbol meaning:

    JDTDB    Julian Day Number, Barycentric Dynamical Time
      X      X-component of position vector (km)
      Y      Y-component of position vector (km)
      Z      Z-component of position vector (km)
      VX     X-component of velocity vector (km/sec)                           
      VY     Y-component of velocity vector (km/sec)                           
      VZ     Z-component of velocity vector (km/sec)                           

ABERRATIONS AND CORRECTIONS

 Geometric state vectors have NO corrections or aberrations applied.

Computations by ...

    Solar System Dynamics Group, Horizons On-Line Ephemeris System
    4800 Oak Grove Drive, Jet Propulsion Laboratory
    Pasadena, CA  91109   USA

    General site: https://ssd.jpl.nasa.gov/
    Mailing list: https://ssd.jpl.nasa.gov/email_list.html
    System news : https://ssd.jpl.nasa.gov/horizons/news.html
    User Guide  : https://ssd.jpl.nasa.gov/horizons/manual.html
    Connect     : browser        https://ssd.jpl.nasa.gov/horizons/app.html#/x
                  API            https://ssd-api.jpl.nasa.gov/doc/horizons.html
                  command-line   telnet ssd.jpl.nasa.gov 6775
                  e-mail/batch   https://ssd.jpl.nasa.gov/ftp/ssd/hrzn_batch.txt
                  scripts        https://ssd.jpl.nasa.gov/ftp/ssd/SCRIPTS
    Author      : Jon.D.Giorgini@jpl.nasa.gov
*******************************************************************************
